[
    {
        "Altitude(m)": 714137.3959266429,
        "Argument of Periapsis(deg)": 0.006834072711976239,
        "Eccentricity": 0.0,
        "Inclination(deg)": 45.0,
        "Latitude(deg)": -36.07333637852249,
        "Longitude(deg)": -54.01739578466273,
        "Mean Anomaly(deg)": -123.98917001151152,
        "RAAN(deg)": 179.99354883512507,
        "Satellite Name": "Constellation 1 806",
        "Satellite Number": 806,
        "Semi-Major Axis(m)": 7083131.272910544,
        "Time(s)": 114
    },
    {
        "Altitude(m)": 714149.48475425,
        "Argument of Periapsis(deg)": 0.006894020718221645,
        "Eccentricity": 0.0,
        "Inclination(deg)": 45.0,
        "Latitude(deg)": -36.10293623348238,
        "Longitude(deg)": -53.95617570290231,
        "Mean Anomaly(deg)": -123.92846887126156,
        "RAAN(deg)": 179.99349224595952,
        "Satellite Name": "Constellation 1 806",
        "Satellite Number": 806,
        "Semi-Major Axis(m)": 7083131.272910544,
        "Time(s)": 115
    },
    {
        "Altitude(m)": 714161.5608207309,
        "Argument of Periapsis(deg)": 0.006953968724467052,
        "Eccentricity": 0.0,
        "Inclination(deg)": 45.0,
        "Latitude(deg)": -36.132500255073765,
        "Longitude(deg)": -53.89490677023502,
        "Mean Anomaly(deg)": -123.8677677310117,
        "RAAN(deg)": 179.99343565679393,
        "Satellite Name": "Constellation 1 806",
        "Satellite Number": 806,
        "Semi-Major Axis(m)": 7083131.272910544,
        "Time(s)": 116
    },
    {
        "Altitude(m)": 714173.6240825447,
        "Argument of Periapsis(deg)": 0.007013916730712457,
        "Eccentricity": 0.0,
        "Inclination(deg)": 45.0,
        "Latitude(deg)": -36.16202837875862,
        "Longitude(deg)": -53.833588956149555,
        "Mean Anomaly(deg)": -123.80706659076178,
        "RAAN(deg)": 179.99337906762835,
        "Satellite Name": "Constellation 1 806",
        "Satellite Number": 806,
        "Semi-Major Axis(m)": 7083131.272910544,
        "Time(s)": 117
    },
    {
        "Altitude(m)": 714185.6744961978,
        "Argument of Periapsis(deg)": 0.007073864736957864,
        "Eccentricity": 0.0,
        "Inclination(deg)": 45.0,
        "Latitude(deg)": -36.19152053994396,
        "Longitude(deg)": -53.77222223038177,
        "Mean Anomaly(deg)": -123.74636545051186,
        "RAAN(deg)": 179.9933224784628,
        "Satellite Name": "Constellation 1 806",
        "Satellite Number": 806,
        "Semi-Major Axis(m)": 7083131.272910544,
        "Time(s)": 118
    },
    {
        "Altitude(m)": 714197.7120182443,
        "Argument of Periapsis(deg)": 0.0071338127432032696,
        "Eccentricity": 0.0,
        "Inclination(deg)": 45.0,
        "Latitude(deg)": -36.22097667398229,
        "Longitude(deg)": -53.710806731013086,
        "Mean Anomaly(deg)": -123.68566431026201,
        "RAAN(deg)": 179.99326588929722,
        "Satellite Name": "Constellation 1 806",
        "Satellite Number": 806,
        "Semi-Major Axis(m)": 7083131.272910544,
        "Time(s)": 119
    },
    {
        "Altitude(m)": 714209.736605269,
        "Argument of Periapsis(deg)": 0.007193760749448674,
        "Eccentricity": 0.0,
        "Inclination(deg)": 45.0,
        "Latitude(deg)": -36.25039671617142,
        "Longitude(deg)": -53.649342092082236,
        "Mean Anomaly(deg)": -123.62496317001204,
        "RAAN(deg)": 179.99320930013167,
        "Satellite Name": "Constellation 1 806",
        "Satellite Number": 806,
        "Semi-Major Axis(m)": 7083131.272910544,
        "Time(s)": 120
    },
    {
        "Altitude(m)": 714221.7482139061,
        "Argument of Periapsis(deg)": 0.007253708755694079,
        "Eccentricity": 0.0,
        "Inclination(deg)": 45.0,
        "Latitude(deg)": -36.27978060175538,
        "Longitude(deg)": -53.58782845217101,
        "Mean Anomaly(deg)": -123.5642620297622,
        "RAAN(deg)": 179.99315271096611,
        "Satellite Name": "Constellation 1 806",
        "Satellite Number": 806,
        "Semi-Major Axis(m)": 7083131.272910544,
        "Time(s)": 121
    },
    {
        "Altitude(m)": 714233.7468008221,
        "Argument of Periapsis(deg)": 0.0073136567619394854,
        "Eccentricity": 0.0,
        "Inclination(deg)": 45.0,
        "Latitude(deg)": -36.30912826592421,
        "Longitude(deg)": -53.52626578201581,
        "Mean Anomaly(deg)": -123.50356088951227,
        "RAAN(deg)": 179.9930961218005,
        "Satellite Name": "Constellation 1 806",
        "Satellite Number": 806,
        "Semi-Major Axis(m)": 7083131.272910544,
        "Time(s)": 122
    },
    {
        "Altitude(m)": 714245.7323227451,
        "Argument of Periapsis(deg)": 0.0073736047681848904,
        "Eccentricity": 0.0,
        "Inclination(deg)": 45.0,
        "Latitude(deg)": -36.33843964381437,
        "Longitude(deg)": -53.4646540526067,
        "Mean Anomaly(deg)": -123.44285974926238,
        "RAAN(deg)": 179.99303953263495,
        "Satellite Name": "Constellation 1 806",
        "Satellite Number": 806,
        "Semi-Major Axis(m)": 7083131.272910544,
        "Time(s)": 123
    },
    {
        "Altitude(m)": 714257.7047364255,
        "Argument of Periapsis(deg)": 0.007433552774430298,
        "Eccentricity": 0.0,
        "Inclination(deg)": 45.0,
        "Latitude(deg)": -36.36771467050903,
        "Longitude(deg)": -53.402993235188376,
        "Mean Anomaly(deg)": -123.3821586090125,
        "RAAN(deg)": 179.99298294346937,
        "Satellite Name": "Constellation 1 806",
        "Satellite Number": 806,
        "Semi-Major Axis(m)": 7083131.272910544,
        "Time(s)": 124
    },
    {
        "Altitude(m)": 714269.6639986687,
        "Argument of Periapsis(deg)": 0.007493500780675703,
        "Eccentricity": 0.0,
        "Inclination(deg)": 45.0,
        "Latitude(deg)": -36.39695328103821,
        "Longitude(deg)": -53.34128330126201,
        "Mean Anomaly(deg)": -123.32145746876266,
        "RAAN(deg)": 179.99292635430382,
        "Satellite Name": "Constellation 1 806",
        "Satellite Number": 806,
        "Semi-Major Axis(m)": 7083131.272910544,
        "Time(s)": 125
    },
    {
        "Altitude(m)": 714281.610066319,
        "Argument of Periapsis(deg)": 0.007553448786921108,
        "Eccentricity": 0.0,
        "Inclination(deg)": 45.0,
        "Latitude(deg)": -36.426155410379415,
        "Longitude(deg)": -53.279524390683136,
        "Mean Anomaly(deg)": -123.26075632851271,
        "RAAN(deg)": 179.99286976513827,
        "Satellite Name": "Constellation 1 806",
        "Satellite Number": 806,
        "Semi-Major Axis(m)": 7083131.272910544,
        "Time(s)": 126
    },
    {
        "Altitude(m)": 714293.542896261,
        "Argument of Periapsis(deg)": 0.007613396793166514,
        "Eccentricity": 0.0,
        "Inclination(deg)": 45.0,
        "Latitude(deg)": -36.455320993457,
        "Longitude(deg)": -53.217716139274806,
        "Mean Anomaly(deg)": -123.2000551882628,
        "RAAN(deg)": 179.99281317597266,
        "Satellite Name": "Constellation 1 806",
        "Satellite Number": 806,
        "Semi-Major Axis(m)": 7083131.272910544,
        "Time(s)": 127
    },
    {
        "Altitude(m)": 714305.4624454288,
        "Argument of Periapsis(deg)": 0.007673344799411918,
        "Eccentricity": 0.0,
        "Inclination(deg)": 45.0,
        "Latitude(deg)": -36.48444996514357,
        "Longitude(deg)": -53.155858687411836,
        "Mean Anomaly(deg)": -123.13935404801292,
        "RAAN(deg)": 179.9927565868071,
        "Satellite Name": "Constellation 1 806",
        "Satellite Number": 806,
        "Semi-Major Axis(m)": 7083131.272910544,
        "Time(s)": 128
    },
    {
        "Altitude(m)": 714317.3686707993,
        "Argument of Periapsis(deg)": 0.007733292805657325,
        "Eccentricity": 0.0,
        "Inclination(deg)": 45.0,
        "Latitude(deg)": -36.513542260259776,
        "Longitude(deg)": -53.09395200763303,
        "Mean Anomaly(deg)": -123.07865290776303,
        "RAAN(deg)": 179.99269999764155,
        "Satellite Name": "Constellation 1 806",
        "Satellite Number": 806,
        "Semi-Major Axis(m)": 7083131.272910544,
        "Time(s)": 129
    },
    {
        "Altitude(m)": 714329.2615293856,
        "Argument of Periapsis(deg)": 0.00779324081190273,
        "Eccentricity": 0.0,
        "Inclination(deg)": 45.0,
        "Latitude(deg)": -36.542597813574424,
        "Longitude(deg)": -53.031996072740355,
        "Mean Anomaly(deg)": -123.01795176751305,
        "RAAN(deg)": 179.99264340847597,
        "Satellite Name": "Constellation 1 806",
        "Satellite Number": 806,
        "Semi-Major Axis(m)": 7083131.272910544,
        "Time(s)": 130
    },
    {
        "Altitude(m)": 714341.1409782538,
        "Argument of Periapsis(deg)": 0.007853188818148135,
        "Eccentricity": 0.0,
        "Inclination(deg)": 45.0,
        "Latitude(deg)": -36.571616559804745,
        "Longitude(deg)": -52.969990855800276,
        "Mean Anomaly(deg)": -122.9572506272632,
        "RAAN(deg)": 179.9925868193104,
        "Satellite Name": "Constellation 1 806",
        "Satellite Number": 806,
        "Semi-Major Axis(m)": 7083131.272910544,
        "Time(s)": 131
    },
    {
        "Altitude(m)": 714353.0069745131,
        "Argument of Periapsis(deg)": 0.007913136824393542,
        "Eccentricity": 0.0,
        "Inclination(deg)": 45.0,
        "Latitude(deg)": -36.6005984336171,
        "Longitude(deg)": -52.90793633014446,
        "Mean Anomaly(deg)": -122.89654948701333,
        "RAAN(deg)": 179.9925302301448,
        "Satellite Name": "Constellation 1 806",
        "Satellite Number": 806,
        "Semi-Major Axis(m)": 7083131.272910544,
        "Time(s)": 132
    }
]